start=new Date('2022-06-20T00:00:00.000Z').valueOf();
sats=[{"OBJECT_NAME":"STARLINK-1918","TIME_SYSTEM":"UTC","COUNTRY_CODE":"US","CLASSIFICATION_TYPE":"U","MEAN_MOTION_DDOT":"0.0000000000000","LAUNCH_DATE":"2020-10-24","ECCENTRICITY":"0.00013630","ARG_OF_PERICENTER":"67.9454","TLE_LINE1":"1 46768U 20074AF  22170.82168593  .00000842  00000-0  75398-4 0  9998","FILE":"3497669","MEAN_ELEMENT_THEORY":"SGP4","RA_OF_ASC_NODE":"316.8185","ELEMENT_SET_NO":"999","GP_ID":"206447561","REF_FRAME":"TEME","BSTAR":"0.00007539800000","MEAN_MOTION_DOT":"0.00000842","MEAN_ANOMALY":"292.1679","RCS_SIZE":"LARGE","EPHEMERIS_TYPE":"0","CENTER_NAME":"EARTH","TLE_LINE2":"2 46768  53.0546 316.8185 0001363  67.9454 292.1679 15.06396052 91650","PERIOD":"95.592","DECAY_DATE":null,"INCLINATION":"53.0546","OBJECT_TYPE":"PAYLOAD","EPOCH":"2022-06-19T19:43:13.664352","REV_AT_EPOCH":"9165","SITE":"AFETR","SEMIMAJOR_AXIS":"6925.361","OBJECT_ID":"2020-074AF","MEAN_MOTION":"15.06396052","APOAPSIS":"548.170","NORAD_CAT_ID":"46768","PERIAPSIS":"546.282"},{"PERIAPSIS":"546.146","NORAD_CAT_ID":"46770","APOAPSIS":"548.293","SEMIMAJOR_AXIS":"6925.354","OBJECT_ID":"2020-074AH","MEAN_MOTION":"15.06398175","SITE":"AFETR","REV_AT_EPOCH":"9164","EPOCH":"2022-06-19T19:53:56.491584","OBJECT_TYPE":"PAYLOAD","INCLINATION":"53.0553","DECAY_DATE":null,"PERIOD":"95.592","RCS_SIZE":"LARGE","EPHEMERIS_TYPE":"0","CENTER_NAME":"EARTH","TLE_LINE2":"2 46770  53.0553 317.3332 0001550  58.6880 301.4261 15.06398175 91647","MEAN_MOTION_DOT":"0.00000670","MEAN_ANOMALY":"301.4261","REF_FRAME":"TEME","GP_ID":"206447808","BSTAR":"0.00006387800000","ELEMENT_SET_NO":"999","RA_OF_ASC_NODE":"317.3332","MEAN_ELEMENT_THEORY":"SGP4","TLE_LINE1":"1 46770U 20074AH  22170.82912606  .00000670  00000-0  63878-4 0  9992","ARG_OF_PERICENTER":"58.6880","FILE":"3497669","LAUNCH_DATE":"2020-10-24","ECCENTRICITY":"0.00015500","MEAN_MOTION_DDOT":"0.0000000000000","CLASSIFICATION_TYPE":"U","COUNTRY_CODE":"US","TIME_SYSTEM":"UTC","OBJECT_NAME":"STARLINK-1932"},{"MEAN_ELEMENT_THEORY":"SGP4","TLE_LINE1":"1 46772U 20074AK  22170.82811521  .00002405  00000-0  18031-3 0  9996","ARG_OF_PERICENTER":"70.0161","FILE":"3497669","ELEMENT_SET_NO":"999","RA_OF_ASC_NODE":"316.7775","COUNTRY_CODE":"US","TIME_SYSTEM":"UTC","OBJECT_NAME":"STARLINK-1936","LAUNCH_DATE":"2020-10-24","ECCENTRICITY":"0.00014150","MEAN_MOTION_DDOT":"0.0000000000000","CLASSIFICATION_TYPE":"U","REV_AT_EPOCH":"9165","OBJECT_TYPE":"PAYLOAD","EPOCH":"2022-06-19T19:52:29.154144","PERIAPSIS":"546.251","APOAPSIS":"548.211","NORAD_CAT_ID":"46772","OBJECT_ID":"2020-074AK","SEMIMAJOR_AXIS":"6925.366","MEAN_MOTION":"15.06394444","SITE":"AFETR","EPHEMERIS_TYPE":"0","RCS_SIZE":"LARGE","CENTER_NAME":"EARTH","TLE_LINE2":"2 46772  53.0559 316.7775 0001415  70.0161 290.0980 15.06394444 91656","MEAN_ANOMALY":"290.0980","MEAN_MOTION_DOT":"0.00002405","GP_ID":"206446561","REF_FRAME":"TEME","BSTAR":"0.00018031000000","INCLINATION":"53.0559","DECAY_DATE":null,"PERIOD":"95.592"},{"PERIAPSIS":"519.396","APOAPSIS":"520.719","NORAD_CAT_ID":"46774","OBJECT_ID":"2020-074AM","SEMIMAJOR_AXIS":"6898.193","MEAN_MOTION":"15.15303957","SITE":"AFETR","REV_AT_EPOCH":"9177","OBJECT_TYPE":"PAYLOAD","EPOCH":"2022-06-19T18:58:12.679392","INCLINATION":"53.0507","DECAY_DATE":null,"PERIOD":"95.030","RCS_SIZE":"LARGE","EPHEMERIS_TYPE":"0","CENTER_NAME":"EARTH","TLE_LINE2":"2 46774  53.0507 308.6225 0000959 138.3766 221.7300 15.15303957 91771","MEAN_MOTION_DOT":"0.00023893","MEAN_ANOMALY":"221.7300","REF_FRAME":"TEME","GP_ID":"206446810","BSTAR":"0.00126570000000","ELEMENT_SET_NO":"999","RA_OF_ASC_NODE":"308.6225","MEAN_ELEMENT_THEORY":"SGP4","TLE_LINE1":"1 46774U 20074AM  22170.79042453  .00023893  00000-0  12657-2 0  9995","ARG_OF_PERICENTER":"138.3766","FILE":"3497669","LAUNCH_DATE":"2020-10-24","ECCENTRICITY":"0.00009590","MEAN_MOTION_DDOT":"0.0000000000000","CLASSIFICATION_TYPE":"U","COUNTRY_CODE":"US","TIME_SYSTEM":"UTC","OBJECT_NAME":"STARLINK-1939"},{"REF_FRAME":"TEME","GP_ID":"206447061","BSTAR":"0.00027315000000","EPHEMERIS_TYPE":"0","RCS_SIZE":"LARGE","TLE_LINE2":"2 46776  53.0520 283.2815 0003703  23.7443 336.3732 15.42184538 92124","CENTER_NAME":"EARTH","MEAN_MOTION_DOT":"0.00011504","MEAN_ANOMALY":"336.3732","DECAY_DATE":null,"PERIOD":"93.374","INCLINATION":"53.0520","OBJECT_TYPE":"PAYLOAD","EPOCH":"2022-06-19T18:56:20.711040","REV_AT_EPOCH":"9212","OBJECT_ID":"2020-074AP","SEMIMAJOR_AXIS":"6817.800","MEAN_MOTION":"15.42184538","SITE":"AFETR","PERIAPSIS":"437.141","NORAD_CAT_ID":"46776","APOAPSIS":"442.190","TIME_SYSTEM":"UTC","OBJECT_NAME":"STARLINK-1946","COUNTRY_CODE":"US","MEAN_MOTION_DDOT":"0.0000000000000","CLASSIFICATION_TYPE":"U","ECCENTRICITY":"0.00037030","LAUNCH_DATE":"2020-10-24","TLE_LINE1":"1 46776U 20074AP  22170.78912860  .00011504  00000-0  27315-3 0  9998","ARG_OF_PERICENTER":"23.7443","FILE":"3497669","MEAN_ELEMENT_THEORY":"SGP4","RA_OF_ASC_NODE":"283.2815","ELEMENT_SET_NO":"999"},{"DECAY_DATE":null,"PERIOD":"95.592","INCLINATION":"53.0546","BSTAR":"0.00029050000000","REF_FRAME":"TEME","GP_ID":"206447308","TLE_LINE2":"2 46779  53.0546 292.2491 0001488  68.7187 291.3961 15.06405529 91980","CENTER_NAME":"EARTH","RCS_SIZE":"LARGE","EPHEMERIS_TYPE":"0","MEAN_MOTION_DOT":"0.00004049","MEAN_ANOMALY":"291.3961","MEAN_MOTION":"15.06405529","SEMIMAJOR_AXIS":"6925.332","OBJECT_ID":"2020-074AS","SITE":"AFETR","PERIAPSIS":"546.166","APOAPSIS":"548.227","NORAD_CAT_ID":"46779","OBJECT_TYPE":"PAYLOAD","EPOCH":"2022-06-19T17:25:53.436288","REV_AT_EPOCH":"9198","MEAN_MOTION_DDOT":"0.0000000000000","CLASSIFICATION_TYPE":"U","LAUNCH_DATE":"2020-10-24","ECCENTRICITY":"0.00014880","TIME_SYSTEM":"UTC","OBJECT_NAME":"STARLINK-1798","COUNTRY_CODE":"US","RA_OF_ASC_NODE":"292.2491","ELEMENT_SET_NO":"999","FILE":"3497669","ARG_OF_PERICENTER":"68.7187","TLE_LINE1":"1 46779U 20074AS  22170.72631292  .00004049  00000-0  29050-3 0  9996","MEAN_ELEMENT_THEORY":"SGP4"},{"PERIAPSIS":"546.177","NORAD_CAT_ID":"46780","APOAPSIS":"548.262","OBJECT_ID":"2020-074AT","SEMIMAJOR_AXIS":"6925.355","MEAN_MOTION":"15.06397982","SITE":"AFETR","REV_AT_EPOCH":"9198","OBJECT_TYPE":"PAYLOAD","EPOCH":"2022-06-19T17:09:58.376736","INCLINATION":"53.0534","DECAY_DATE":null,"PERIOD":"95.592","RCS_SIZE":"LARGE","EPHEMERIS_TYPE":"0","CENTER_NAME":"EARTH","TLE_LINE2":"2 46780  53.0534 292.3060 0001505  65.1185 294.9960 15.06397982 91982","MEAN_ANOMALY":"294.9960","MEAN_MOTION_DOT":"0.00001496","REF_FRAME":"TEME","GP_ID":"206446062","BSTAR":"0.00011930000000","ELEMENT_SET_NO":"999","RA_OF_ASC_NODE":"292.3060","MEAN_ELEMENT_THEORY":"SGP4","ARG_OF_PERICENTER":"65.1185","TLE_LINE1":"1 46780U 20074AT  22170.71525899  .00001496  00000-0  11930-3 0  9993","FILE":"3497669","LAUNCH_DATE":"2020-10-24","ECCENTRICITY":"0.00015050","MEAN_MOTION_DDOT":"0.0000000000000","CLASSIFICATION_TYPE":"U","COUNTRY_CODE":"US","TIME_SYSTEM":"UTC","OBJECT_NAME":"STARLINK-1832"},{"PERIAPSIS":"546.285","APOAPSIS":"548.205","NORAD_CAT_ID":"46781","SEMIMAJOR_AXIS":"6925.380","OBJECT_ID":"2020-074AU","MEAN_MOTION":"15.06389769","SITE":"AFETR","REV_AT_EPOCH":"9184","OBJECT_TYPE":"PAYLOAD","EPOCH":"2022-06-19T15:59:38.649984","INCLINATION":"53.0557","DECAY_DATE":null,"PERIOD":"95.593","EPHEMERIS_TYPE":"0","RCS_SIZE":"LARGE","TLE_LINE2":"2 46781  53.0557 302.5229 0001386  78.6087 281.5058 15.06389769 91845","CENTER_NAME":"EARTH","MEAN_MOTION_DOT":"0.00001993","MEAN_ANOMALY":"281.5058","GP_ID":"206446310","REF_FRAME":"TEME","BSTAR":"0.00015272000000","ELEMENT_SET_NO":"999","RA_OF_ASC_NODE":"302.5229","MEAN_ELEMENT_THEORY":"SGP4","TLE_LINE1":"1 46781U 20074AU  22170.66641956  .00001993  00000-0  15272-3 0  9996","ARG_OF_PERICENTER":"78.6087","FILE":"3497669","LAUNCH_DATE":"2020-10-24","ECCENTRICITY":"0.00013860","MEAN_MOTION_DDOT":"0.0000000000000","CLASSIFICATION_TYPE":"U","COUNTRY_CODE":"US","TIME_SYSTEM":"UTC","OBJECT_NAME":"STARLINK-1834"},{"CENTER_NAME":"EARTH","TLE_LINE2":"2 46782  53.0549 291.7427 0001437  68.0685 292.0457 15.06397554 92000","RCS_SIZE":"LARGE","EPHEMERIS_TYPE":"0","MEAN_ANOMALY":"292.0457","MEAN_MOTION_DOT":"0.00002700","BSTAR":"0.00020008000000","REF_FRAME":"TEME","GP_ID":"206447562","INCLINATION":"53.0549","DECAY_DATE":null,"PERIOD":"95.592","REV_AT_EPOCH":"9200","OBJECT_TYPE":"PAYLOAD","EPOCH":"2022-06-19T20:05:07.485216","PERIAPSIS":"546.226","NORAD_CAT_ID":"46782","APOAPSIS":"548.216","MEAN_MOTION":"15.06397554","OBJECT_ID":"2020-074AV","SEMIMAJOR_AXIS":"6925.356","SITE":"AFETR","COUNTRY_CODE":"US","TIME_SYSTEM":"UTC","OBJECT_NAME":"STARLINK-1835","LAUNCH_DATE":"2020-10-24","ECCENTRICITY":"0.00014370","MEAN_MOTION_DDOT":"0.0000000000000","CLASSIFICATION_TYPE":"U","MEAN_ELEMENT_THEORY":"SGP4","FILE":"3497669","TLE_LINE1":"1 46782U 20074AV  22170.83689219  .00002700  00000-0  20008-3 0  9990","ARG_OF_PERICENTER":"68.0685","ELEMENT_SET_NO":"999","RA_OF_ASC_NODE":"291.7427"},{"COUNTRY_CODE":"US","TIME_SYSTEM":"UTC","OBJECT_NAME":"STARLINK-1851","LAUNCH_DATE":"2020-10-24","ECCENTRICITY":"0.00016320","MEAN_MOTION_DDOT":"0.0000000000000","CLASSIFICATION_TYPE":"U","MEAN_ELEMENT_THEORY":"SGP4","TLE_LINE1":"1 46783U 20074AW  22170.51989853  .00002874  00000-0  21180-3 0  9997","ARG_OF_PERICENTER":"43.0884","FILE":"3497010","ELEMENT_SET_NO":"999","RA_OF_ASC_NODE":"293.1762","RCS_SIZE":"LARGE","EPHEMERIS_TYPE":"0","CENTER_NAME":"EARTH","TLE_LINE2":"2 46783  53.0553 293.1762 0001632  43.0884 317.0232 15.06397122 91958","MEAN_ANOMALY":"317.0232","MEAN_MOTION_DOT":"0.00002874","REF_FRAME":"TEME","GP_ID":"206415003","BSTAR":"0.00021180000000","INCLINATION":"53.0553","DECAY_DATE":null,"PERIOD":"95.592","REV_AT_EPOCH":"9195","EPOCH":"2022-06-19T12:28:39.232992","OBJECT_TYPE":"PAYLOAD","PERIAPSIS":"546.092","NORAD_CAT_ID":"46783","APOAPSIS":"548.353","SEMIMAJOR_AXIS":"6925.357","OBJECT_ID":"2020-074AW","MEAN_MOTION":"15.06397122","SITE":"AFETR"}];
